{"fetched_at":"2026-07-06T08:46:41.354Z","source":"https://celestrak.org/NORAD/elements/gp.php?GROUP=planet&FORMAT=JSON","constellation":"superdove","records":[{"OBJECT_NAME":"FLOCK 4G-25","OBJECT_ID":"2025-009AP","EPOCH":"2026-07-05T04:19:40.490400","CLASSIFICATION_TYPE":"U","MEAN_MOTION":15.29857854,"ECCENTRICITY":0.000141,"INCLINATION":97.4007,"RA_OF_ASC_NODE":268.1828,"ARG_OF_PERICENTER":188.5116,"MEAN_ANOMALY":171.6101,"EPHEMERIS_TYPE":0,"NORAD_CAT_ID":62646,"ELEMENT_SET_NO":999,"REV_AT_EPOCH":8167,"BSTAR":0.00065768,"MEAN_MOTION_DOT":0.00018967,"MEAN_MOTION_DDOT":0},{"OBJECT_NAME":"FLOCK 4G-23","OBJECT_ID":"2025-009AQ","EPOCH":"2026-07-05T04:27:23.361120","CLASSIFICATION_TYPE":"U","MEAN_MOTION":15.34167443,"ECCENTRICITY":0.0002582,"INCLINATION":97.3925,"RA_OF_ASC_NODE":267.8567,"ARG_OF_PERICENTER":193.0673,"MEAN_ANOMALY":167.0503,"EPHEMERIS_TYPE":0,"NORAD_CAT_ID":62647,"ELEMENT_SET_NO":999,"REV_AT_EPOCH":8168,"BSTAR":0.0021451,"MEAN_MOTION_DOT":0.00071446,"MEAN_MOTION_DDOT":0},{"OBJECT_NAME":"FLOCK 4G-34","OBJECT_ID":"2025-009AT","EPOCH":"2026-07-04T18:58:38.685792","CLASSIFICATION_TYPE":"U","MEAN_MOTION":15.29620853,"ECCENTRICITY":0.0001345,"INCLINATION":97.3959,"RA_OF_ASC_NODE":267.2924,"ARG_OF_PERICENTER":188.5013,"MEAN_ANOMALY":171.6204,"EPHEMERIS_TYPE":0,"NORAD_CAT_ID":62650,"ELEMENT_SET_NO":999,"REV_AT_EPOCH":8160,"BSTAR":0.00063086,"MEAN_MOTION_DOT":0.00018056,"MEAN_MOTION_DDOT":0},{"OBJECT_NAME":"FLOCK 4G-31","OBJECT_ID":"2025-009AV","EPOCH":"2026-07-05T05:05:04.708320","CLASSIFICATION_TYPE":"U","MEAN_MOTION":15.29441275,"ECCENTRICITY":0.0000982,"INCLINATION":97.3963,"RA_OF_ASC_NODE":267.6855,"ARG_OF_PERICENTER":173.7004,"MEAN_ANOMALY":186.4248,"EPHEMERIS_TYPE":0,"NORAD_CAT_ID":62652,"ELEMENT_SET_NO":999,"REV_AT_EPOCH":8166,"BSTAR":0.00062683,"MEAN_MOTION_DOT":0.00017841,"MEAN_MOTION_DDOT":0},{"OBJECT_NAME":"FLOCK 4G-2","OBJECT_ID":"2025-009BE","EPOCH":"2026-07-05T04:47:16.380096","CLASSIFICATION_TYPE":"U","MEAN_MOTION":15.30184161,"ECCENTRICITY":0.000284,"INCLINATION":97.4005,"RA_OF_ASC_NODE":268.1503,"ARG_OF_PERICENTER":245.1332,"MEAN_ANOMALY":114.9613,"EPHEMERIS_TYPE":0,"NORAD_CAT_ID":62661,"ELEMENT_SET_NO":999,"REV_AT_EPOCH":13928,"BSTAR":0.0006014,"MEAN_MOTION_DOT":0.00017511,"MEAN_MOTION_DDOT":0},{"OBJECT_NAME":"FLOCK 4G-5","OBJECT_ID":"2025-009BG","EPOCH":"2026-07-05T04:45:27.242208","CLASSIFICATION_TYPE":"U","MEAN_MOTION":15.30778622,"ECCENTRICITY":0.0002569,"INCLINATION":97.4023,"RA_OF_ASC_NODE":268.5378,"ARG_OF_PERICENTER":219.3936,"MEAN_ANOMALY":140.7119,"EPHEMERIS_TYPE":0,"NORAD_CAT_ID":62663,"ELEMENT_SET_NO":999,"REV_AT_EPOCH":8169,"BSTAR":0.00056132,"MEAN_MOTION_DOT":0.0001664,"MEAN_MOTION_DDOT":0},{"OBJECT_NAME":"FLOCK 4G-1","OBJECT_ID":"2025-009BK","EPOCH":"2026-07-05T04:24:12.106944","CLASSIFICATION_TYPE":"U","MEAN_MOTION":15.30042462,"ECCENTRICITY":0.0003142,"INCLINATION":97.4017,"RA_OF_ASC_NODE":268.1138,"ARG_OF_PERICENTER":240.2836,"MEAN_ANOMALY":119.8092,"EPHEMERIS_TYPE":0,"NORAD_CAT_ID":62666,"ELEMENT_SET_NO":999,"REV_AT_EPOCH":8166,"BSTAR":0.00062664,"MEAN_MOTION_DOT":0.00018172,"MEAN_MOTION_DDOT":0},{"OBJECT_NAME":"FLOCK 4G-14","OBJECT_ID":"2025-009BL","EPOCH":"2026-07-05T05:04:43.508352","CLASSIFICATION_TYPE":"U","MEAN_MOTION":15.29590937,"ECCENTRICITY":0.0003211,"INCLINATION":97.4019,"RA_OF_ASC_NODE":267.9451,"ARG_OF_PERICENTER":235.0076,"MEAN_ANOMALY":125.0863,"EPHEMERIS_TYPE":0,"NORAD_CAT_ID":62667,"ELEMENT_SET_NO":999,"REV_AT_EPOCH":8165,"BSTAR":0.00064948,"MEAN_MOTION_DOT":0.00018578,"MEAN_MOTION_DDOT":0},{"OBJECT_NAME":"FLOCK 4G-10","OBJECT_ID":"2025-009BP","EPOCH":"2026-07-05T05:21:23.145120","CLASSIFICATION_TYPE":"U","MEAN_MOTION":15.29692791,"ECCENTRICITY":0.0002884,"INCLINATION":97.392,"RA_OF_ASC_NODE":267.2661,"ARG_OF_PERICENTER":259.943,"MEAN_ANOMALY":100.1485,"EPHEMERIS_TYPE":0,"NORAD_CAT_ID":62670,"ELEMENT_SET_NO":999,"REV_AT_EPOCH":13929,"BSTAR":0.00061205,"MEAN_MOTION_DOT":0.00017555,"MEAN_MOTION_DDOT":0},{"OBJECT_NAME":"FLOCK 4G-36","OBJECT_ID":"2025-009BU","EPOCH":"2026-07-05T05:13:14.605824","CLASSIFICATION_TYPE":"U","MEAN_MOTION":15.29660411,"ECCENTRICITY":0.0003429,"INCLINATION":97.4008,"RA_OF_ASC_NODE":267.873,"ARG_OF_PERICENTER":241.802,"MEAN_ANOMALY":118.2874,"EPHEMERIS_TYPE":0,"NORAD_CAT_ID":62675,"ELEMENT_SET_NO":999,"REV_AT_EPOCH":8165,"BSTAR":0.00058478,"MEAN_MOTION_DOT":0.00016752,"MEAN_MOTION_DDOT":0},{"OBJECT_NAME":"FLOCK 4G-15","OBJECT_ID":"2025-009BX","EPOCH":"2026-07-05T05:24:04.542048","CLASSIFICATION_TYPE":"U","MEAN_MOTION":15.29751972,"ECCENTRICITY":0.0003617,"INCLINATION":97.4008,"RA_OF_ASC_NODE":268.0216,"ARG_OF_PERICENTER":236.8269,"MEAN_ANOMALY":123.2625,"EPHEMERIS_TYPE":0,"NORAD_CAT_ID":62678,"ELEMENT_SET_NO":999,"REV_AT_EPOCH":13930,"BSTAR":0.00063338,"MEAN_MOTION_DOT":0.00018205,"MEAN_MOTION_DDOT":0},{"OBJECT_NAME":"FLOCK 4G-30","OBJECT_ID":"2025-009BY","EPOCH":"2026-07-05T04:38:34.888704","CLASSIFICATION_TYPE":"U","MEAN_MOTION":15.33391085,"ECCENTRICITY":0.0003371,"INCLINATION":97.391,"RA_OF_ASC_NODE":267.4672,"ARG_OF_PERICENTER":230.3335,"MEAN_ANOMALY":129.7611,"EPHEMERIS_TYPE":0,"NORAD_CAT_ID":62679,"ELEMENT_SET_NO":999,"REV_AT_EPOCH":13930,"BSTAR":0.0021159,"MEAN_MOTION_DOT":0.00068751,"MEAN_MOTION_DDOT":0},{"OBJECT_NAME":"FLOCK 4G-18","OBJECT_ID":"2025-009BZ","EPOCH":"2026-07-05T04:43:04.600128","CLASSIFICATION_TYPE":"U","MEAN_MOTION":15.31683774,"ECCENTRICITY":0.0005236,"INCLINATION":97.4001,"RA_OF_ASC_NODE":267.8795,"ARG_OF_PERICENTER":246.8107,"MEAN_ANOMALY":113.2583,"EPHEMERIS_TYPE":0,"NORAD_CAT_ID":62680,"ELEMENT_SET_NO":999,"REV_AT_EPOCH":13929,"BSTAR":0.0020941,"MEAN_MOTION_DOT":0.00064483,"MEAN_MOTION_DDOT":0}]}
