FLOCK 4G-25             
1 62646U 25009AP  26186.18032975  .00018967  00000+0  65768-3 0  9993
2 62646  97.4007 268.1828 0001409 188.5116 171.6101 15.29857854 81675
FLOCK 4G-23             
1 62647U 25009AQ  26186.18568705  .00071446  00000+0  21451-2 0  9990
2 62647  97.3925 267.8567 0002581 193.0673 167.0503 15.34167443 81681
FLOCK 4G-34             
1 62650U 25009AT  26185.79072554  .00018056  00000+0  63086-3 0  9991
2 62650  97.3959 267.2924 0001345 188.5013 171.6204 15.29620853 81601
FLOCK 4G-31             
1 62652U 25009AV  26186.21186005  .00017841  00000+0  62683-3 0  9991
2 62652  97.3963 267.6855 0000982 173.7004 186.4248 15.29441275 81664
FLOCK 4G-2              
1 62661U 25009BE  26186.19949514  .00017511  00000+0  60140-3 0  9990
2 62661  97.4005 268.1503 0002840 245.1332 114.9613 15.30184161139285
FLOCK 4G-5              
1 62663U 25009BG  26186.19823197  .00016640  00000+0  56132-3 0  9998
2 62663  97.4023 268.5378 0002568 219.3936 140.7119 15.30778622 81691
FLOCK 4G-1              
1 62666U 25009BK  26186.18347347  .00018172  00000+0  62664-3 0  9997
2 62666  97.4017 268.1138 0003141 240.2836 119.8092 15.30042462 81667
FLOCK 4G-14             
1 62667U 25009BL  26186.21161468  .00018578  00000+0  64948-3 0  9997
2 62667  97.4019 267.9451 0003211 235.0076 125.0863 15.29590937 81658
FLOCK 4G-10             
1 62670U 25009BP  26186.22318455  .00017555  00000+0  61205-3 0  9999
2 62670  97.3920 267.2661 0002883 259.9430 100.1485 15.29692791139290
FLOCK 4G-36             
1 62675U 25009BU  26186.21753017  .00016752  00000+0  58478-3 0  9996
2 62675  97.4008 267.8730 0003429 241.8020 118.2874 15.29660411 81650
FLOCK 4G-15             
1 62678U 25009BX  26186.22505257  .00018205  00000+0  63338-3 0  9997
2 62678  97.4008 268.0216 0003617 236.8269 123.2625 15.29751972139302
FLOCK 4G-30             
1 62679U 25009BY  26186.19345937  .00068751  00000+0  21159-2 0  9996
2 62679  97.3910 267.4672 0003371 230.3335 129.7611 15.33391085139309
FLOCK 4G-18             
1 62680U 25009BZ  26186.19658103  .00064483  00000+0  20941-2 0  9996
2 62680  97.4001 267.8795 0005236 246.8107 113.2583 15.31683774139295
